[{"OBJECT_NAME":"STARLINK-34733","OBJECT_ID":"2025-263C","EPOCH":"2025-12-08T06:00:02.999808","MEAN_MOTION":15.50568399,"ECCENTRICITY":0.00016698,"INCLINATION":43.0004,"RA_OF_ASC_NODE":151.4185,"ARG_OF_PERICENTER":278.6013,"MEAN_ANOMALY":115.3116,"EPHEMERIS_TYPE":0,"CLASSIFICATION_TYPE":"U","NORAD_CAT_ID":66487,"ELEMENT_SET_NO":999,"REV_AT_EPOCH":491,"BSTAR":-0.00059876208,"MEAN_MOTION_DOT":-0.00035297,"MEAN_MOTION_DDOT":0},{"OBJECT_NAME":"STARLINK-35515","OBJECT_ID":"2025-263D","EPOCH":"2025-12-08T06:00:02.999808","MEAN_MOTION":15.50568782,"ECCENTRICITY":0.00016139,"INCLINATION":43.0005,"RA_OF_ASC_NODE":151.4126,"ARG_OF_PERICENTER":278.771,"MEAN_ANOMALY":117.0588,"EPHEMERIS_TYPE":0,"CLASSIFICATION_TYPE":"U","NORAD_CAT_ID":66488,"ELEMENT_SET_NO":999,"REV_AT_EPOCH":491,"BSTAR":-0.00060593401,"MEAN_MOTION_DOT":-0.00035714,"MEAN_MOTION_DDOT":0},{"OBJECT_NAME":"STARLINK-35696","OBJECT_ID":"2025-263E","EPOCH":"2025-12-08T06:00:02.999808","MEAN_MOTION":15.50569197,"ECCENTRICITY":0.00017662,"INCLINATION":43.0004,"RA_OF_ASC_NODE":151.4082,"ARG_OF_PERICENTER":279.9676,"MEAN_ANOMALY":117.7742,"EPHEMERIS_TYPE":0,"CLASSIFICATION_TYPE":"U","NORAD_CAT_ID":66489,"ELEMENT_SET_NO":999,"REV_AT_EPOCH":491,"BSTAR":-0.00054910285,"MEAN_MOTION_DOT":-0.00032411,"MEAN_MOTION_DDOT":0},{"OBJECT_NAME":"STARLINK-35693","OBJECT_ID":"2025-263F","EPOCH":"2025-12-08T06:00:02.999808","MEAN_MOTION":15.50502362,"ECCENTRICITY":0.00016726,"INCLINATION":43.0003,"RA_OF_ASC_NODE":151.4037,"ARG_OF_PERICENTER":280.939,"MEAN_ANOMALY":118.7368,"EPHEMERIS_TYPE":0,"CLASSIFICATION_TYPE":"U","NORAD_CAT_ID":66490,"ELEMENT_SET_NO":999,"REV_AT_EPOCH":491,"BSTAR":0.0016155608,"MEAN_MOTION_DOT":0.00095337,"MEAN_MOTION_DDOT":0},{"OBJECT_NAME":"STARLINK-35663","OBJECT_ID":"2025-263G","EPOCH":"2025-12-08T06:00:02.999808","MEAN_MOTION":15.50505733,"ECCENTRICITY":0.00017015,"INCLINATION":43.0004,"RA_OF_ASC_NODE":151.3937,"ARG_OF_PERICENTER":281.1374,"MEAN_ANOMALY":122.3678,"EPHEMERIS_TYPE":0,"CLASSIFICATION_TYPE":"U","NORAD_CAT_ID":66491,"ELEMENT_SET_NO":999,"REV_AT_EPOCH":491,"BSTAR":0.0019261105,"MEAN_MOTION_DOT":0.00114016,"MEAN_MOTION_DDOT":0},{"OBJECT_NAME":"STARLINK-35673","OBJECT_ID":"2025-263H","EPOCH":"2025-12-08T06:00:02.999808","MEAN_MOTION":15.50505918,"ECCENTRICITY":0.0001746,"INCLINATION":43.0005,"RA_OF_ASC_NODE":151.3888,"ARG_OF_PERICENTER":278.0629,"MEAN_ANOMALY":127.3622,"EPHEMERIS_TYPE":0,"CLASSIFICATION_TYPE":"U","NORAD_CAT_ID":66492,"ELEMENT_SET_NO":999,"REV_AT_EPOCH":491,"BSTAR":0.0015868624,"MEAN_MOTION_DOT":0.00093629,"MEAN_MOTION_DDOT":0},{"OBJECT_NAME":"STARLINK-35597","OBJECT_ID":"2025-263J","EPOCH":"2025-12-08T06:00:02.999808","MEAN_MOTION":15.50570955,"ECCENTRICITY":0.00015402,"INCLINATION":43.0006,"RA_OF_ASC_NODE":151.3832,"ARG_OF_PERICENTER":265.4776,"MEAN_ANOMALY":141.8582,"EPHEMERIS_TYPE":0,"CLASSIFICATION_TYPE":"U","NORAD_CAT_ID":66493,"ELEMENT_SET_NO":999,"REV_AT_EPOCH":491,"BSTAR":-0.00072845466,"MEAN_MOTION_DOT":-0.00042831,"MEAN_MOTION_DDOT":0},{"OBJECT_NAME":"STARLINK-35689","OBJECT_ID":"2025-263K","EPOCH":"2025-12-08T06:00:02.999808","MEAN_MOTION":15.50563355,"ECCENTRICITY":0.00014748,"INCLINATION":43.0003,"RA_OF_ASC_NODE":151.3987,"ARG_OF_PERICENTER":267.7982,"MEAN_ANOMALY":133.7816,"EPHEMERIS_TYPE":0,"CLASSIFICATION_TYPE":"U","NORAD_CAT_ID":66494,"ELEMENT_SET_NO":999,"REV_AT_EPOCH":491,"BSTAR":-0.00035324451,"MEAN_MOTION_DOT":-0.00020997,"MEAN_MOTION_DDOT":0},{"OBJECT_NAME":"STARLINK-35832","OBJECT_ID":"2025-263L","EPOCH":"2025-12-08T06:00:02.999808","MEAN_MOTION":15.50503193,"ECCENTRICITY":0.00017015,"INCLINATION":43.0005,"RA_OF_ASC_NODE":151.3792,"ARG_OF_PERICENTER":283.7632,"MEAN_ANOMALY":125.4949,"EPHEMERIS_TYPE":0,"CLASSIFICATION_TYPE":"U","NORAD_CAT_ID":66495,"ELEMENT_SET_NO":999,"REV_AT_EPOCH":491,"BSTAR":0.0017008348,"MEAN_MOTION_DOT":0.00100457,"MEAN_MOTION_DDOT":0},{"OBJECT_NAME":"STARLINK-35909","OBJECT_ID":"2025-263M","EPOCH":"2025-12-08T06:00:02.999808","MEAN_MOTION":15.50580985,"ECCENTRICITY":0.00016902,"INCLINATION":43.0006,"RA_OF_ASC_NODE":151.3735,"ARG_OF_PERICENTER":262.5513,"MEAN_ANOMALY":148.62,"EPHEMERIS_TYPE":0,"CLASSIFICATION_TYPE":"U","NORAD_CAT_ID":66496,"ELEMENT_SET_NO":999,"REV_AT_EPOCH":491,"BSTAR":-0.0010889928,"MEAN_MOTION_DOT":-0.00063716,"MEAN_MOTION_DDOT":0},{"OBJECT_NAME":"STARLINK-35899","OBJECT_ID":"2025-263N","EPOCH":"2025-12-08T06:00:02.999808","MEAN_MOTION":15.50504325,"ECCENTRICITY":0.00017657,"INCLINATION":43.0005,"RA_OF_ASC_NODE":151.3688,"ARG_OF_PERICENTER":281.5141,"MEAN_ANOMALY":131.5791,"EPHEMERIS_TYPE":0,"CLASSIFICATION_TYPE":"U","NORAD_CAT_ID":66497,"ELEMENT_SET_NO":999,"REV_AT_EPOCH":491,"BSTAR":0.0014580009,"MEAN_MOTION_DOT":0.00085908,"MEAN_MOTION_DDOT":0},{"OBJECT_NAME":"STARLINK-35907","OBJECT_ID":"2025-263P","EPOCH":"2025-12-08T06:00:02.999808","MEAN_MOTION":15.50570734,"ECCENTRICITY":0.00014875,"INCLINATION":43.0004,"RA_OF_ASC_NODE":151.3635,"ARG_OF_PERICENTER":265.9039,"MEAN_ANOMALY":149.1,"EPHEMERIS_TYPE":0,"CLASSIFICATION_TYPE":"U","NORAD_CAT_ID":66498,"ELEMENT_SET_NO":999,"REV_AT_EPOCH":491,"BSTAR":-0.00071926517,"MEAN_MOTION_DOT":-0.00042298,"MEAN_MOTION_DDOT":0},{"OBJECT_NAME":"STARLINK-35816","OBJECT_ID":"2025-263Q","EPOCH":"2025-12-08T06:00:02.999808","MEAN_MOTION":15.50569354,"ECCENTRICITY":0.00014695,"INCLINATION":43.0003,"RA_OF_ASC_NODE":151.3545,"ARG_OF_PERICENTER":264.2843,"MEAN_ANOMALY":154.5544,"EPHEMERIS_TYPE":0,"CLASSIFICATION_TYPE":"U","NORAD_CAT_ID":66499,"ELEMENT_SET_NO":999,"REV_AT_EPOCH":491,"BSTAR":-0.00068617863,"MEAN_MOTION_DOT":-0.00040375,"MEAN_MOTION_DDOT":0},{"OBJECT_NAME":"STARLINK-35894","OBJECT_ID":"2025-263R","EPOCH":"2025-12-08T06:00:02.999808","MEAN_MOTION":15.50584691,"ECCENTRICITY":0.00011139,"INCLINATION":43.0005,"RA_OF_ASC_NODE":151.4697,"ARG_OF_PERICENTER":286.2989,"MEAN_ANOMALY":85.7461,"EPHEMERIS_TYPE":0,"CLASSIFICATION_TYPE":"U","NORAD_CAT_ID":66500,"ELEMENT_SET_NO":999,"REV_AT_EPOCH":491,"BSTAR":-0.00092491296,"MEAN_MOTION_DOT":-0.00054237,"MEAN_MOTION_DDOT":0},{"OBJECT_NAME":"STARLINK-35897","OBJECT_ID":"2025-263S","EPOCH":"2025-12-08T06:00:02.999808","MEAN_MOTION":15.50501243,"ECCENTRICITY":0.0001716,"INCLINATION":43.0005,"RA_OF_ASC_NODE":151.3498,"ARG_OF_PERICENTER":283.447,"MEAN_ANOMALY":137.3125,"EPHEMERIS_TYPE":0,"CLASSIFICATION_TYPE":"U","NORAD_CAT_ID":66501,"ELEMENT_SET_NO":999,"REV_AT_EPOCH":491,"BSTAR":0.0015205138,"MEAN_MOTION_DOT":0.00089639,"MEAN_MOTION_DDOT":0},{"OBJECT_NAME":"STARLINK-35922","OBJECT_ID":"2025-263T","EPOCH":"2025-12-08T06:00:02.999808","MEAN_MOTION":15.50569723,"ECCENTRICITY":0.00014951,"INCLINATION":43.0003,"RA_OF_ASC_NODE":151.3345,"ARG_OF_PERICENTER":265.3258,"MEAN_ANOMALY":161.1803,"EPHEMERIS_TYPE":0,"CLASSIFICATION_TYPE":"U","NORAD_CAT_ID":66502,"ELEMENT_SET_NO":999,"REV_AT_EPOCH":491,"BSTAR":-0.00068302425,"MEAN_MOTION_DOT":-0.00040193,"MEAN_MOTION_DDOT":0}]
